IRIDIUM 144             
1 43249U 18030A   25338.15781723  .00000162  00000+0  50661-4 0  9999
2 43249  86.3977  11.9342 0002229  97.6418 262.5031 14.34217875402180
IRIDIUM 149             
1 43250U 18030B   25338.16415884  .00000204  00000+0  65790-4 0  9990
2 43250  86.3975  11.9006 0002173  94.9739 265.1704 14.34217878402203
IRIDIUM 157             
1 43251U 18030C   25338.11341952  .00000082  00000+0  22247-4 0  9994
2 43251  86.3977  11.9707 0002282  89.8213 270.3244 14.34218072402175
IRIDIUM 140             
1 43252U 18030D   25338.13244668  .00000115  00000+0  34106-4 0  9997
2 43252  86.3977  11.9758 0002136  96.9961 263.1478 14.34219447402232
IRIDIUM 145             
1 43253U 18030E   25338.18953049  .00000126  00000+0  37916-4 0  9997
2 43253  86.3978  11.9245 0002405 102.5587 257.5878 14.34218255402172
IRIDIUM 146             
1 43254U 18030F   25338.10073408  .00000063  00000+0  15451-4 0  9992
2 43254  86.3977  11.9746 0002275  97.4657 262.6798 14.34217962402175
IRIDIUM 148             
1 43255U 18030G   25338.13878912  .00000102  00000+0  29318-4 0  9990
2 43255  86.3976  11.9986 0002262  91.6924 268.4531 14.34218534402210
IRIDIUM 142             
1 43256U 18030H   25338.10707641  .00000234  00000+0  76435-4 0  9996
2 43256  86.3974  11.9081 0002404 102.4693 257.6772 14.34218481402170
